STARLINK-36839          
1 68125U 26044AA  26089.50002314 -.02014335  00000+0 -17646-1 0  9992
2 68125  97.2846  50.7003 0001921 101.2835  68.3084 15.71835236  4697
ECHOSTAR 25             
1 68126U 26045A   26089.44446456  .00000041  00000+0  00000+0 0  9995
2 68126   0.0493 282.2216 0002477 111.8772 184.8342  1.00273007   203
ICOR SV                 
1 68127U 26046A   26089.39445280  .00496154  12145-4  71528-3 0  9994
2 68127 123.0761 300.2405 0100212 224.8583 134.4358 15.95585500  2898
FIREFLY ALPHA R/B       
1 68128U 26046B   26089.50763976  .00047455  00000+0  63584-3 0  9994
2 68128 123.0938 296.8744 0016482  21.7197 338.4560 15.57398432  2885
GUOWANG GROUP 20 OBJECT*
1 68129U 26047A   26086.61766448 -.00000101  00000+0  34814-4 0  9995
2 68129  50.0073 357.5704 0001326 229.8596 130.2189 13.95400488  2083
GUOWANG GROUP 20 OBJECT*
1 68130U 26047B   26085.75628566 -.00000072  00000+0  55036-4 0  9995
2 68130  50.0066   1.0171 0000428 307.3036  52.7826 13.96591410  1957
GUOWANG GROUP 20 OBJECT*
1 68131U 26047C   26085.82615450 -.00000111  00000+0  27090-4 0  9995
2 68131  49.9996   0.7054 0000048  49.5998 310.4907 13.96862690  1970
GUOWANG GROUP 20 OBJECT*
1 68132U 26047D   26083.82212781 -.00000102  00000+0  32409-4 0  9994
2 68132  50.0048   8.7665 0002416   7.3102 352.7836 14.00513037  1680
GUOWANG GROUP 20 OBJECT*
1 68133U 26047E   26089.09734756 -.00000106  00000+0  29276-4 0  9993
2 68133  49.9775 347.4440 0030770  44.8262 315.5120 14.01483768  2431
GUOWANG GROUP 20 OBJECT*
1 68134U 26047F   26083.10517479 -.00000032  00000+0  77668-4 0  9997
2 68134  50.0123  11.6502 0000475 222.9253 137.1614 14.01903676  1585
GUOWANG GROUP 20 OBJECT*
1 68135U 26047G   26085.74432800  .00000018  00000+0  11069-3 0  9999
2 68135  50.0409   0.8903 0004806 213.0056 147.0548 14.01583953  1962
GUOWANG GROUP 20 OBJECT*
1 68136U 26047H   26084.03205513 -.00000099  00000+0  33918-4 0  9998
2 68136  49.9530   7.8688 0014532 103.7924 256.4596 14.01074305  1715
